ORBCOMM FM103           
1 40091U 14040F   24222.92454967  .00002676  00000+0  62836-3 0  9999
2 40091  47.0056  46.5026 0002411 278.4605  81.6006 14.56849180535753
ORBCOMM FM114           
1 41179U 15081A   24222.74866454  .00003178  00000+0  73879-3 0  9998
2 41179  47.0031 316.5508 0002183 320.7647  39.3079 14.56874772459033
ORBCOMM FM119           
1 41180U 15081B   24222.72353001  .00001812  00000+0  43771-3 0  9998
2 41180  46.9993 225.8934 0001028  12.7630 347.3281 14.56824790460283
ORBCOMM FM105           
1 41181U 15081C   24223.12724803  .00001089  00000+0  35745-3 0  9994
2 41181  47.0001 199.3285 0002156 342.9547  17.1260 14.44521441455870
ORBCOMM FM110           
1 41182U 15081D   24222.72606139  .00003277  00000+0  75966-3 0  9991
2 41182  47.0020 316.0596 0002182 208.7663 151.3102 14.56935137458909
ORBCOMM FM118           
1 41183U 15081E   24222.70378052  .00002771  00000+0  64834-3 0  9990
2 41183  47.0043 316.4931 0002318 202.6296 157.4487 14.56927648459001
ORBCOMM FM112           
1 41184U 15081F   24222.70044720  .00002453  00000+0  57971-3 0  9994
2 41184  46.9968 225.2018 0001792 357.7232   2.3645 14.56803226460221
ORBCOMM FM113           
1 41185U 15081G   24223.15773617  .00002624  00000+0  61733-3 0  9990
2 41185  46.9985 223.3276 0001246   3.2655 356.8237 14.56813529460346
