<?xml version="1.0" encoding="UTF-8"?>
<ndm xmlns:xsi="http://www.w3.org/2001/XMLSchema-instance" xsi:noNamespaceSchemaLocation="https://sanaregistry.org/r/ndmxml_unqualified/ndmxml-2.0.0-master-2.0.xsd">
<omm id="CCSDS_OMM_VERS" version="2.0">
<header><CREATION_DATE/><ORIGINATOR/></header><body><segment><metadata><OBJECT_NAME>ORBCOMM FM103</OBJECT_NAME><OBJECT_ID>2014-040F</OBJECT_ID><CENTER_NAME>EARTH</CENTER_NAME><REF_FRAME>TEME</REF_FRAME><TIME_SYSTEM>UTC</TIME_SYSTEM><MEAN_ELEMENT_THEORY>SGP4</MEAN_ELEMENT_THEORY></metadata><data><meanElements><EPOCH>2024-08-09T22:11:21.091488</EPOCH><MEAN_MOTION>14.56849180</MEAN_MOTION><ECCENTRICITY>.0002411</ECCENTRICITY><INCLINATION>47.0056</INCLINATION><RA_OF_ASC_NODE>46.5026</RA_OF_ASC_NODE><ARG_OF_PERICENTER>278.4605</ARG_OF_PERICENTER><MEAN_ANOMALY>81.6006</MEAN_ANOMALY></meanElements><tleParameters><EPHEMERIS_TYPE>0</EPHEMERIS_TYPE><CLASSIFICATION_TYPE>U</CLASSIFICATION_TYPE><NORAD_CAT_ID>40091</NORAD_CAT_ID><ELEMENT_SET_NO>999</ELEMENT_SET_NO><REV_AT_EPOCH>53575</REV_AT_EPOCH><BSTAR>.62836E-3</BSTAR><MEAN_MOTION_DOT>.2676E-4</MEAN_MOTION_DOT><MEAN_MOTION_DDOT>0</MEAN_MOTION_DDOT></tleParameters></data></segment></body></omm>
<omm id="CCSDS_OMM_VERS" version="2.0">
<header><CREATION_DATE/><ORIGINATOR/></header><body><segment><metadata><OBJECT_NAME>ORBCOMM FM114</OBJECT_NAME><OBJECT_ID>2015-081A</OBJECT_ID><CENTER_NAME>EARTH</CENTER_NAME><REF_FRAME>TEME</REF_FRAME><TIME_SYSTEM>UTC</TIME_SYSTEM><MEAN_ELEMENT_THEORY>SGP4</MEAN_ELEMENT_THEORY></metadata><data><meanElements><EPOCH>2024-08-09T17:58:04.616256</EPOCH><MEAN_MOTION>14.56874772</MEAN_MOTION><ECCENTRICITY>.0002183</ECCENTRICITY><INCLINATION>47.0031</INCLINATION><RA_OF_ASC_NODE>316.5508</RA_OF_ASC_NODE><ARG_OF_PERICENTER>320.7647</ARG_OF_PERICENTER><MEAN_ANOMALY>39.3079</MEAN_ANOMALY></meanElements><tleParameters><EPHEMERIS_TYPE>0</EPHEMERIS_TYPE><CLASSIFICATION_TYPE>U</CLASSIFICATION_TYPE><NORAD_CAT_ID>41179</NORAD_CAT_ID><ELEMENT_SET_NO>999</ELEMENT_SET_NO><REV_AT_EPOCH>45903</REV_AT_EPOCH><BSTAR>.73879E-3</BSTAR><MEAN_MOTION_DOT>.3178E-4</MEAN_MOTION_DOT><MEAN_MOTION_DDOT>0</MEAN_MOTION_DDOT></tleParameters></data></segment></body></omm>
<omm id="CCSDS_OMM_VERS" version="2.0">
<header><CREATION_DATE/><ORIGINATOR/></header><body><segment><metadata><OBJECT_NAME>ORBCOMM FM119</OBJECT_NAME><OBJECT_ID>2015-081B</OBJECT_ID><CENTER_NAME>EARTH</CENTER_NAME><REF_FRAME>TEME</REF_FRAME><TIME_SYSTEM>UTC</TIME_SYSTEM><MEAN_ELEMENT_THEORY>SGP4</MEAN_ELEMENT_THEORY></metadata><data><meanElements><EPOCH>2024-08-09T17:21:52.992864</EPOCH><MEAN_MOTION>14.56824790</MEAN_MOTION><ECCENTRICITY>.0001028</ECCENTRICITY><INCLINATION>46.9993</INCLINATION><RA_OF_ASC_NODE>225.8934</RA_OF_ASC_NODE><ARG_OF_PERICENTER>12.7630</ARG_OF_PERICENTER><MEAN_ANOMALY>347.3281</MEAN_ANOMALY></meanElements><tleParameters><EPHEMERIS_TYPE>0</EPHEMERIS_TYPE><CLASSIFICATION_TYPE>U</CLASSIFICATION_TYPE><NORAD_CAT_ID>41180</NORAD_CAT_ID><ELEMENT_SET_NO>999</ELEMENT_SET_NO><REV_AT_EPOCH>46028</REV_AT_EPOCH><BSTAR>.43771E-3</BSTAR><MEAN_MOTION_DOT>.1812E-4</MEAN_MOTION_DOT><MEAN_MOTION_DDOT>0</MEAN_MOTION_DDOT></tleParameters></data></segment></body></omm>
<omm id="CCSDS_OMM_VERS" version="2.0">
<header><CREATION_DATE/><ORIGINATOR/></header><body><segment><metadata><OBJECT_NAME>ORBCOMM FM105</OBJECT_NAME><OBJECT_ID>2015-081C</OBJECT_ID><CENTER_NAME>EARTH</CENTER_NAME><REF_FRAME>TEME</REF_FRAME><TIME_SYSTEM>UTC</TIME_SYSTEM><MEAN_ELEMENT_THEORY>SGP4</MEAN_ELEMENT_THEORY></metadata><data><meanElements><EPOCH>2024-08-10T03:03:14.229792</EPOCH><MEAN_MOTION>14.44521441</MEAN_MOTION><ECCENTRICITY>.0002156</ECCENTRICITY><INCLINATION>47.0001</INCLINATION><RA_OF_ASC_NODE>199.3285</RA_OF_ASC_NODE><ARG_OF_PERICENTER>342.9547</ARG_OF_PERICENTER><MEAN_ANOMALY>17.1260</MEAN_ANOMALY></meanElements><tleParameters><EPHEMERIS_TYPE>0</EPHEMERIS_TYPE><CLASSIFICATION_TYPE>U</CLASSIFICATION_TYPE><NORAD_CAT_ID>41181</NORAD_CAT_ID><ELEMENT_SET_NO>999</ELEMENT_SET_NO><REV_AT_EPOCH>45587</REV_AT_EPOCH><BSTAR>.35745E-3</BSTAR><MEAN_MOTION_DOT>.1089E-4</MEAN_MOTION_DOT><MEAN_MOTION_DDOT>0</MEAN_MOTION_DDOT></tleParameters></data></segment></body></omm>
<omm id="CCSDS_OMM_VERS" version="2.0">
<header><CREATION_DATE/><ORIGINATOR/></header><body><segment><metadata><OBJECT_NAME>ORBCOMM FM110</OBJECT_NAME><OBJECT_ID>2015-081D</OBJECT_ID><CENTER_NAME>EARTH</CENTER_NAME><REF_FRAME>TEME</REF_FRAME><TIME_SYSTEM>UTC</TIME_SYSTEM><MEAN_ELEMENT_THEORY>SGP4</MEAN_ELEMENT_THEORY></metadata><data><meanElements><EPOCH>2024-08-09T17:25:31.704096</EPOCH><MEAN_MOTION>14.56935137</MEAN_MOTION><ECCENTRICITY>.0002182</ECCENTRICITY><INCLINATION>47.0020</INCLINATION><RA_OF_ASC_NODE>316.0596</RA_OF_ASC_NODE><ARG_OF_PERICENTER>208.7663</ARG_OF_PERICENTER><MEAN_ANOMALY>151.3102</MEAN_ANOMALY></meanElements><tleParameters><EPHEMERIS_TYPE>0</EPHEMERIS_TYPE><CLASSIFICATION_TYPE>U</CLASSIFICATION_TYPE><NORAD_CAT_ID>41182</NORAD_CAT_ID><ELEMENT_SET_NO>999</ELEMENT_SET_NO><REV_AT_EPOCH>45890</REV_AT_EPOCH><BSTAR>.75966E-3</BSTAR><MEAN_MOTION_DOT>.3277E-4</MEAN_MOTION_DOT><MEAN_MOTION_DDOT>0</MEAN_MOTION_DDOT></tleParameters></data></segment></body></omm>
<omm id="CCSDS_OMM_VERS" version="2.0">
<header><CREATION_DATE/><ORIGINATOR/></header><body><segment><metadata><OBJECT_NAME>ORBCOMM FM118</OBJECT_NAME><OBJECT_ID>2015-081E</OBJECT_ID><CENTER_NAME>EARTH</CENTER_NAME><REF_FRAME>TEME</REF_FRAME><TIME_SYSTEM>UTC</TIME_SYSTEM><MEAN_ELEMENT_THEORY>SGP4</MEAN_ELEMENT_THEORY></metadata><data><meanElements><EPOCH>2024-08-09T16:53:26.636928</EPOCH><MEAN_MOTION>14.56927648</MEAN_MOTION><ECCENTRICITY>.0002318</ECCENTRICITY><INCLINATION>47.0043</INCLINATION><RA_OF_ASC_NODE>316.4931</RA_OF_ASC_NODE><ARG_OF_PERICENTER>202.6296</ARG_OF_PERICENTER><MEAN_ANOMALY>157.4487</MEAN_ANOMALY></meanElements><tleParameters><EPHEMERIS_TYPE>0</EPHEMERIS_TYPE><CLASSIFICATION_TYPE>U</CLASSIFICATION_TYPE><NORAD_CAT_ID>41183</NORAD_CAT_ID><ELEMENT_SET_NO>999</ELEMENT_SET_NO><REV_AT_EPOCH>45900</REV_AT_EPOCH><BSTAR>.64834E-3</BSTAR><MEAN_MOTION_DOT>.2771E-4</MEAN_MOTION_DOT><MEAN_MOTION_DDOT>0</MEAN_MOTION_DDOT></tleParameters></data></segment></body></omm>
<omm id="CCSDS_OMM_VERS" version="2.0">
<header><CREATION_DATE/><ORIGINATOR/></header><body><segment><metadata><OBJECT_NAME>ORBCOMM FM112</OBJECT_NAME><OBJECT_ID>2015-081F</OBJECT_ID><CENTER_NAME>EARTH</CENTER_NAME><REF_FRAME>TEME</REF_FRAME><TIME_SYSTEM>UTC</TIME_SYSTEM><MEAN_ELEMENT_THEORY>SGP4</MEAN_ELEMENT_THEORY></metadata><data><meanElements><EPOCH>2024-08-09T16:48:38.638080</EPOCH><MEAN_MOTION>14.56803226</MEAN_MOTION><ECCENTRICITY>.0001792</ECCENTRICITY><INCLINATION>46.9968</INCLINATION><RA_OF_ASC_NODE>225.2018</RA_OF_ASC_NODE><ARG_OF_PERICENTER>357.7232</ARG_OF_PERICENTER><MEAN_ANOMALY>2.3645</MEAN_ANOMALY></meanElements><tleParameters><EPHEMERIS_TYPE>0</EPHEMERIS_TYPE><CLASSIFICATION_TYPE>U</CLASSIFICATION_TYPE><NORAD_CAT_ID>41184</NORAD_CAT_ID><ELEMENT_SET_NO>999</ELEMENT_SET_NO><REV_AT_EPOCH>46022</REV_AT_EPOCH><BSTAR>.57971E-3</BSTAR><MEAN_MOTION_DOT>.2453E-4</MEAN_MOTION_DOT><MEAN_MOTION_DDOT>0</MEAN_MOTION_DDOT></tleParameters></data></segment></body></omm>
<omm id="CCSDS_OMM_VERS" version="2.0">
<header><CREATION_DATE/><ORIGINATOR/></header><body><segment><metadata><OBJECT_NAME>ORBCOMM FM113</OBJECT_NAME><OBJECT_ID>2015-081G</OBJECT_ID><CENTER_NAME>EARTH</CENTER_NAME><REF_FRAME>TEME</REF_FRAME><TIME_SYSTEM>UTC</TIME_SYSTEM><MEAN_ELEMENT_THEORY>SGP4</MEAN_ELEMENT_THEORY></metadata><data><meanElements><EPOCH>2024-08-10T03:47:08.405088</EPOCH><MEAN_MOTION>14.56813529</MEAN_MOTION><ECCENTRICITY>.0001246</ECCENTRICITY><INCLINATION>46.9985</INCLINATION><RA_OF_ASC_NODE>223.3276</RA_OF_ASC_NODE><ARG_OF_PERICENTER>3.2655</ARG_OF_PERICENTER><MEAN_ANOMALY>356.8237</MEAN_ANOMALY></meanElements><tleParameters><EPHEMERIS_TYPE>0</EPHEMERIS_TYPE><CLASSIFICATION_TYPE>U</CLASSIFICATION_TYPE><NORAD_CAT_ID>41185</NORAD_CAT_ID><ELEMENT_SET_NO>999</ELEMENT_SET_NO><REV_AT_EPOCH>46034</REV_AT_EPOCH><BSTAR>.61733E-3</BSTAR><MEAN_MOTION_DOT>.2624E-4</MEAN_MOTION_DOT><MEAN_MOTION_DDOT>0</MEAN_MOTION_DDOT></tleParameters></data></segment></body></omm>

</ndm>
